{
  "type": "FeatureCollection",
  "features": [
    {
      "type": "Feature",
      "properties": {
        "norad_id": 31089,
        "name": "FENGYUN 1C DEB",
        "group": "fengyun-1c-debris",
        "lat": 73.7176600726155,
        "lon": 89.47031331139725,
        "alt_km": 1062.2633619766575,
        "timestamp": "2025-12-05T18:53:13.562399+00:00",
        "meta_object_name": "FENGYUN 1C DEB",
        "meta_object_id": "1999-025BGK",
        "meta_epoch": "2025-12-01T09:07:49.380096",
        "meta_mean_motion": 13.88281458,
        "meta_eccentricity": 0.02056627,
        "meta_inclination": 98.9488,
        "meta_ra_of_asc_node": 117.8872,
        "meta_arg_of_pericenter": 242.4516,
        "meta_mean_anomaly": 143.828,
        "meta_ephemeris_type": 0,
        "meta_classification_type": "U",
        "meta_norad_cat_id": 31089,
        "meta_element_set_no": 999,
        "meta_rev_at_epoch": 67902,
        "meta_bstar": 0.00085311791,
        "meta_mean_motion_dot": 1.165e-05,
        "meta_mean_motion_ddot": 0,
        "tle_line1": "1 31089U 99025BGK 25335.38043264  .00001165  00000+0  85312-3 0  9998",
        "tle_line2": "2 31089  98.9488 117.8872 0205662 242.4516 143.8280 13.88281458679026"
      },
      "geometry": {
        "type": "Point",
        "coordinates": [
          89.47031331139725,
          73.7176600726155
        ]
      }
    },
    {
      "type": "Feature",
      "properties": {
        "norad_id": 31090,
        "name": "FENGYUN 1C DEB",
        "group": "fengyun-1c-debris",
        "lat": 38.713920490036124,
        "lon": -90.3682446747051,
        "alt_km": 428.7791377505937,
        "timestamp": "2025-12-05T18:53:13.562409+00:00",
        "meta_object_name": "FENGYUN 1C DEB",
        "meta_object_id": "1999-025BGL",
        "meta_epoch": "2025-12-05T05:44:12.071040",
        "meta_mean_motion": 15.3212721,
        "meta_eccentricity": 0.00571542,
        "meta_inclination": 98.9862,
        "meta_ra_of_asc_node": 81.6804,
        "meta_arg_of_pericenter": 158.9203,
        "meta_mean_anomaly": 201.4408,
        "meta_ephemeris_type": 0,
        "meta_classification_type": "U",
        "meta_norad_cat_id": 31090,
        "meta_element_set_no": 999,
        "meta_rev_at_epoch": 723,
        "meta_bstar": 0.0028068541,
        "meta_mean_motion_dot": 0.0009253,
        "meta_mean_motion_ddot": 0,
        "tle_line1": "1 31090U 99025BGL 25339.23902860  .00092530  00000+0  28069-2 0  9995",
        "tle_line2": "2 31090  98.9862  81.6804 0057154 158.9203 201.4408 15.32127210  7239"
      },
      "geometry": {
        "type": "Point",
        "coordinates": [
          -90.3682446747051,
          38.713920490036124
        ]
      }
    },
    {
      "type": "Feature",
      "properties": {
        "norad_id": 31091,
        "name": "FENGYUN 1C DEB",
        "group": "fengyun-1c-debris",
        "lat": 76.04506316928013,
        "lon": 178.13437689643337,
        "alt_km": 1132.0947821669943,
        "timestamp": "2025-12-05T18:53:13.562419+00:00",
        "meta_object_name": "FENGYUN 1C DEB",
        "meta_object_id": "1999-025BGM",
        "meta_epoch": "2025-12-04T17:34:43.964256",
        "meta_mean_motion": 13.54129173,
        "meta_eccentricity": 0.02910245,
        "meta_inclination": 99.2238,
        "meta_ra_of_asc_node": 316.3135,
        "meta_arg_of_pericenter": 349.3064,
        "meta_mean_anomaly": 10.1972,
        "meta_ephemeris_type": 0,
        "meta_classification_type": "U",
        "meta_norad_cat_id": 31091,
        "meta_element_set_no": 999,
        "meta_rev_at_epoch": 61531,
        "meta_bstar": 0.0015277738,
        "meta_mean_motion_dot": 1.317e-05,
        "meta_mean_motion_ddot": 0,
        "tle_line1": "1 31091U 99025BGM 25338.73245329  .00001317  00000+0  15278-2 0  9991",
        "tle_line2": "2 31091  99.2238 316.3135 0291024 349.3064  10.1972 13.54129173615310"
      },
      "geometry": {
        "type": "Point",
        "coordinates": [
          178.13437689643337,
          76.04506316928013
        ]
      }
    },
    {
      "type": "Feature",
      "properties": {
        "norad_id": 31092,
        "name": "FENGYUN 1C DEB",
        "group": "fengyun-1c-debris",
        "lat": -63.97975386273237,
        "lon": 116.34797438269291,
        "alt_km": 1277.423106775257,
        "timestamp": "2025-12-05T18:53:13.562429+00:00",
        "meta_object_name": "FENGYUN 1C DEB",
        "meta_object_id": "1999-025BGN",
        "meta_epoch": "2025-11-15T07:00:52.552224",
        "meta_mean_motion": 13.46401433,
        "meta_eccentricity": 0.03278725,
        "meta_inclination": 99.7115,
        "meta_ra_of_asc_node": 75.9227,
        "meta_arg_of_pericenter": 204.4209,
        "meta_mean_anomaly": 154.1084,
        "meta_ephemeris_type": 0,
        "meta_classification_type": "U",
        "meta_norad_cat_id": 31092,
        "meta_element_set_no": 999,
        "meta_rev_at_epoch": 91512,
        "meta_bstar": 0.0042000132,
        "meta_mean_motion_dot": 3.457e-05,
        "meta_mean_motion_ddot": 0,
        "tle_line1": "1 31092U 99025BGN 25319.29227491  .00003457  00000+0  42000-2 0  9992",
        "tle_line2": "2 31092  99.7115  75.9227 0327872 204.4209 154.1084 13.46401433915121"
      },
      "geometry": {
        "type": "Point",
        "coordinates": [
          116.34797438269291,
          -63.97975386273237
        ]
      }
    },
    {
      "type": "Feature",
      "properties": {
        "norad_id": 31093,
        "name": "FENGYUN 1C DEB",
        "group": "fengyun-1c-debris",
        "lat": -42.75308871692664,
        "lon": -172.55598318859063,
        "alt_km": 924.8287336026515,
        "timestamp": "2025-12-05T18:53:13.562438+00:00",
        "meta_object_name": "FENGYUN 1C DEB",
        "meta_object_id": "1999-025BGP",
        "meta_epoch": "2025-12-05T06:55:20.350272",
        "meta_mean_motion": 13.80619862,
        "meta_eccentricity": 0.0208154,
        "meta_inclination": 98.5951,
        "meta_ra_of_asc_node": 178.9527,
        "meta_arg_of_pericenter": 243.443,
        "meta_mean_anomaly": 114.5256,
        "meta_ephemeris_type": 0,
        "meta_classification_type": "U",
        "meta_norad_cat_id": 31093,
        "meta_element_set_no": 999,
        "meta_rev_at_epoch": 94404,
        "meta_bstar": 0.00073051264,
        "meta_mean_motion_dot": 8.63e-06,
        "meta_mean_motion_ddot": 0,
        "tle_line1": "1 31093U 99025BGP 25339.28842998  .00000863  00000+0  73051-3 0  9998",
        "tle_line2": "2 31093  98.5951 178.9527 0208154 243.4430 114.5256 13.80619862944043"
      },
      "geometry": {
        "type": "Point",
        "coordinates": [
          -172.55598318859063,
          -42.75308871692664
        ]
      }
    },
    {
      "type": "Feature",
      "properties": {
        "norad_id": 31094,
        "name": "FENGYUN 1C DEB",
        "group": "fengyun-1c-debris",
        "lat": -79.09280404524475,
        "lon": -26.17430606345782,
        "alt_km": 967.8795297918814,
        "timestamp": "2025-12-05T18:53:13.562449+00:00",
        "meta_object_name": "FENGYUN 1C DEB",
        "meta_object_id": "1999-025BGQ",
        "meta_epoch": "2025-12-04T14:13:57.061056",
        "meta_mean_motion": 14.01990538,
        "meta_eccentricity": 0.0106414,
        "meta_inclination": 98.8568,
        "meta_ra_of_asc_node": 206.6778,
        "meta_arg_of_pericenter": 69.4772,
        "meta_mean_anomaly": 291.7776,
        "meta_ephemeris_type": 0,
        "meta_classification_type": "U",
        "meta_norad_cat_id": 31094,
        "meta_element_set_no": 999,
        "meta_rev_at_epoch": 95505,
        "meta_bstar": 0.0026418,
        "meta_mean_motion_dot": 4.192e-05,
        "meta_mean_motion_ddot": 0,
        "tle_line1": "1 31094U 99025BGQ 25338.59302154  .00004192  00000+0  26418-2 0  9990",
        "tle_line2": "2 31094  98.8568 206.6778 0106414  69.4772 291.7776 14.01990538955053"
      },
      "geometry": {
        "type": "Point",
        "coordinates": [
          -26.17430606345782,
          -79.09280404524475
        ]
      }
    },
    {
      "type": "Feature",
      "properties": {
        "norad_id": 31095,
        "name": "FENGYUN 1C DEB",
        "group": "fengyun-1c-debris",
        "lat": -40.8940729779545,
        "lon": -63.88134783079945,
        "alt_km": 870.5793163174703,
        "timestamp": "2025-12-05T18:53:13.562459+00:00",
        "meta_object_name": "FENGYUN 1C DEB",
        "meta_object_id": "1999-025BGR",
        "meta_epoch": "2025-12-03T05:06:12.521952",
        "meta_mean_motion": 13.06661132,
        "meta_eccentricity": 0.0499779,
        "meta_inclination": 98.5614,
        "meta_ra_of_asc_node": 121.5529,
        "meta_arg_of_pericenter": 214.6633,
        "meta_mean_anomaly": 142.0948,
        "meta_ephemeris_type": 0,
        "meta_classification_type": "U",
        "meta_norad_cat_id": 31095,
        "meta_element_set_no": 999,
        "meta_rev_at_epoch": 89323,
        "meta_bstar": 0.00017519,
        "meta_mean_motion_dot": 7.3e-07,
        "meta_mean_motion_ddot": 0,
        "tle_line1": "1 31095U 99025BGR 25337.21264493  .00000073  00000+0  17519-3 0  9999",
        "tle_line2": "2 31095  98.5614 121.5529 0499779 214.6633 142.0948 13.06661132893230"
      },
      "geometry": {
        "type": "Point",
        "coordinates": [
          -63.88134783079945,
          -40.8940729779545
        ]
      }
    }
  ]
}